IONOSFERA-M 4           
1 64877U 25155B   26158.49663719  .00000081  00000+0  56560-4 0  9991
2 64877  98.6019 120.5633 0000723 115.3513 244.7739 14.21487068 45026
MICROCARB               
1 64899U 25156A   26158.49929301  .00000609  00000+0  10409-3 0  9995
2 64899  97.9831 235.8094 0015167 306.0701  53.9101 14.72316129 46547
CO3D 3                  
1 64900U 25156B   26158.38003925  .00005253  00000+0  24562-3 0  9996
2 64900  97.4326 237.2144 0001048 137.8046 222.3270 15.20201609 48047
CO3D 4                  
1 64901U 25156C   26157.98525144  .00000401  00000+0  21650-4 0  9990
2 64901  97.4332 236.8250 0000860  29.5009 330.6275 15.20205058 47987
CO3D 2                  
1 64902U 25156D   26158.47849421  .00004754  00000+0  22262-3 0  9997
2 64902  97.4325 237.2102 0001361 115.2659 244.8717 15.20197470 48056
CO3D 1                  
1 64903U 25156E   26158.47864427  .00005056  00000+0  23647-3 0  9995
2 64903  97.4323 237.2107 0001165 117.7717 242.3636 15.20207505 48058
PRSC-S1                 
1 65055U 25164A   26158.51800194  .00005825  00000+0  40015-3 0  9991
2 65055  41.1315 342.2657 0007598 287.2657  72.7325 15.06369335 46976
SENTINEL-6B             
1 66514U 25264A   26158.24826375 -.00000039  00000+0  95951-4 0  9995
2 66514  66.0384 155.8218 0008060 269.3489  90.6603 12.80929703 25895
CAS500-3                
1 66655U 25274F   26158.06324462  .00001324  00000+0  14905-3 0  9998
2 66655  97.7446  86.3448 0006218 136.7859 223.3847 14.88296689 28646
CSG-3                   
1 67304U 26001A   26158.47749189  .00000401  00000+0  56904-4 0  9992
2 67304  97.8887 342.2203 0001329  95.6154 264.5211 14.82162668 23022
PRSC-E03                
1 68835U 26092A   26158.37931600  .00002591  00000+0  17871-3 0  9993
2 68835  37.9995 147.5142 0005173 297.4396  62.5840 15.06622118  6478
CAS500-2                
1 69013U 26100AK  26158.21510869  .00006879  00000+0  31758-3 0  9998
2 69013  97.4081  56.2424 0011392  65.4660 294.7761 15.20470522  5296
