OBJECT_NAME,OBJECT_ID,EPOCH,MEAN_MOTION,ECCENTRICITY,INCLINATION,RA_OF_ASC_NODE,ARG_OF_PERICENTER,MEAN_ANOMALY,EPHEMERIS_TYPE,CLASSIFICATION_TYPE,NORAD_CAT_ID,ELEMENT_SET_NO,REV_AT_EPOCH,BSTAR,MEAN_MOTION_DOT,MEAN_MOTION_DDOT
IONOSFERA-M 4,2025-155B,2026-06-07T11:55:09.453216,14.21487068,.0000723,98.6019,120.5633,115.3513,244.7739,0,U,64877,999,4502,.5656E-4,.81E-6,0
MICROCARB,2025-156A,2026-06-07T11:58:58.916064,14.72316129,.0015167,97.9831,235.8094,306.0701,53.9101,0,U,64899,999,4654,.10409E-3,.609E-5,0
CO3D 3,2025-156B,2026-06-07T09:07:15.391200,15.20201609,.0001048,97.4326,237.2144,137.8046,222.3270,0,U,64900,999,4804,.24562E-3,.5253E-4,0
CO3D 4,2025-156C,2026-06-06T23:38:45.724416,15.20205058,.000086,97.4332,236.8250,29.5009,330.6275,0,U,64901,999,4798,.2165E-4,.401E-5,0
CO3D 2,2025-156D,2026-06-07T11:29:01.899744,15.20197470,.0001361,97.4325,237.2102,115.2659,244.8717,0,U,64902,999,4805,.22262E-3,.4754E-4,0
CO3D 1,2025-156E,2026-06-07T11:29:14.864928,15.20207505,.0001165,97.4323,237.2107,117.7717,242.3636,0,U,64903,999,4805,.23647E-3,.5056E-4,0
PRSC-S1,2025-164A,2026-06-07T12:25:55.367616,15.06369335,.0007598,41.1315,342.2657,287.2657,72.7325,0,U,65055,999,4697,.40015E-3,.5825E-4,0
SENTINEL-6B,2025-264A,2026-06-07T05:57:29.988000,12.80929703,.000806,66.0384,155.8218,269.3489,90.6603,0,U,66514,999,2589,.95951E-4,-.39E-6,0
CAS500-3,2025-274F,2026-06-07T01:31:04.335168,14.88296689,.0006218,97.7446,86.3448,136.7859,223.3847,0,U,66655,999,2864,.14905E-3,.1324E-4,0
CSG-3,2026-001A,2026-06-07T11:27:35.299296,14.82162668,.0001329,97.8887,342.2203,95.6154,264.5211,0,U,67304,999,2302,.56904E-4,.401E-5,0
PRSC-E03,2026-092A,2026-06-07T09:06:12.902400,15.06622118,.0005173,37.9995,147.5142,297.4396,62.5840,0,U,68835,999,647,.17871E-3,.2591E-4,0
CAS500-2,2026-100AK,2026-06-07T05:09:45.390816,15.20470522,.0011392,97.4081,56.2424,65.4660,294.7761,0,U,69013,999,529,.31758E-3,.6879E-4,0
